{"type":"FeatureCollection","features":[{"type":"Feature","geometry":{"type":"Polygon","coordinates":[[[-2.999639,51.599867],[-2.999675,51.599834],[-2.999681,51.599794],[-2.999692,51.599761],[-2.999694,51.599734],[-2.999695,51.599726],[-2.999687,51.599723],[-2.999255,51.599693],[-2.999227,51.59985],[-2.999314,51.599851],[-2.999324,51.599806],[-2.999401,51.599816],[-2.999522,51.599821],[-2.999592,51.599829],[-2.999591,51.599867],[-2.999639,51.599867]]]},"properties":{"id":"crindau-house","name":"Crindau House","category":"manorial","status":"surviving","dates":"c.1580","desc":"Substantial stone hall-house surviving within private grounds.","url":"buildings/crindau-house.html"}},{"type":"Feature","geometry":{"type":"Polygon","coordinates":[[[-2.995775,51.599193],[-2.995993,51.598827],[-2.995317,51.598619],[-2.995049,51.598954],[-2.995775,51.599193]]]},"properties":{"id":"bottling-plant","name":"Brewery Bottling Plant","category":"civic","status":"demolished","dates":"1901","desc":"","url":""}},{"type":"Feature","geometry":{"type":"Polygon","coordinates":[[[-2.994551,51.599446],[-2.995106,51.598571],[-2.994323,51.598386],[-2.993953,51.598907],[-2.993554,51.598792],[-2.993327,51.599128],[-2.994551,51.599446]]]},"properties":{"id":"lovells-confectionery","name":"G.F. Lovell & Co. (Rexville Works)","category":"industrial","status":"demolished","dates":"1913–2005","desc":"Multi-storey factory halls, boiling floors, and packing sheds flanking the rail line.","url":"buildings/lovells-confectionery.html"}},{"type":"Feature","geometry":{"type":"Polygon","coordinates":[[[-2.993856,51.600594],[-2.994326,51.599825],[-2.992731,51.59948],[-2.992333,51.600249],[-2.993856,51.600594]]]},"properties":{"id":"rexville-ground","name":"Rexville Ground (Lovells Athletic F.C.)","category":"sports","status":"demolished","dates":"1918–1969","desc":"Enclosed playing pitch with cinder embankments and timber grandstand.","url":"buildings/rexville-ground.html"}},{"type":"Feature","geometry":{"type":"Polygon","coordinates":[[[-2.995062,51.602684],[-2.997674,51.599793],[-2.994998,51.599107],[-2.993539,51.601508],[-2.993069,51.602153],[-2.995062,51.602684]]]},"properties":{"id":"crindau-gas-works","name":"Newport Gas Co. (Crindau Works)","category":"industrial","status":"demolished","dates":"1882–1970s","desc":"Retort benches, purification sheds, and telescopic gasholder berths.","url":"buildings/crindau-gas-works.html"}},{"type":"Feature","geometry":{"type":"Polygon","coordinates":[[[-2.9938,51.6043],[-2.994626,51.603041],[-2.992007,51.60244],[-2.991651,51.603129],[-2.991551,51.603766],[-2.9938,51.6043]]]},"properties":{"id":"south-wales-glass","name":"South Wales Glass Works","category":"industrial","status":"demolished","dates":"c.1887–Interwar","desc":"Continuous tank furnace halls, annealing lehrs, and cullet yards.","url":"buildings/south-wales-glass.html"}}]}